STARLINK-11422 [DTC]    
1 61944U 24209F   26038.63039050  .00153207  00000+0  12430-2 0  9995
2 61944  53.1568 159.6726 0001443  57.8118 302.3039 15.69771900 71959
STARLINK-11421 [DTC]    
1 61945U 24209G   26038.62548500  .00114114  00000+0  93132-3 0  9993
2 61945  53.1575 159.6390 0002079  32.4823 327.6322 15.69774657 71950
STARLINK-11410 [DTC]    
1 61946U 24209H   26038.62057890  .00165270  00000+0  13378-2 0  9993
2 61946  53.1565 159.6046 0001734  51.5642 308.5532 15.69784625 71997
STARLINK-11390 [DTC]    
1 61947U 24209J   26038.61567460  .00186628  00000+0  15057-2 0  9998
2 61947  53.1565 159.5743 0002025  31.1272 328.9866 15.69792774 71998
STARLINK-11414 [DTC]    
1 61948U 24209K   26039.29641709  .00241450  00000+0  19343-2 0  9990
2 61948  53.1570 155.9919 0000966  85.9799 274.1330 15.69785904 72102
STARLINK-11424 [DTC]    
1 61949U 24209L   26039.30132344  .00402267  00000+0  31398-2 0  9992
2 61949  53.1564 156.0252 0000383 319.1085  40.9904 15.69915152 72062
STARLINK-11423 [DTC]    
1 61950U 24209M   26038.92912945  .00219808  00000+0  17671-2 0  9999
2 61950  53.1576 157.9759 0004944  26.5848 333.5423 15.69760662 72041
STARLINK-11395 [DTC]    
1 61951U 24209N   26038.92421788  .00198336  00000+0  15997-2 0  9991
2 61951  53.1565 157.9365 0003196  36.5535 323.5701 15.69758659 72002
STARLINK-32572          
1 61952U 24209P   26039.06225445  .00037868  00000+0  12841-2 0  9997
2 61952  53.1589 279.8216 0001471  70.9100 289.2060 15.30201553 70369
STARLINK-32585          
1 61953U 24209Q   26039.10024107  .00020534  00000+0  70357-3 0  9994
2 61953  53.1574 280.0561 0001180 100.5987 259.5147 15.30196756 70365
STARLINK-32574          
1 61954U 24209R   26039.04547165  .00035973  00000+0  12218-2 0  9996
2 61954  53.1580 280.4244 0001058 100.8022 259.3098 15.30175466 70371
STARLINK-32583          
1 61955U 24209S   26038.96327772  .00012087  00000+0  41951-3 0  9995
2 61955  53.1562 280.6228 0001175  72.9970 287.1159 15.30203683 70366
STARLINK-32273          
1 61956U 24209T   26038.93689796  .00024129  00000+0  82395-3 0  9997
2 61956  53.1586 280.4544 0001402  66.5647 293.5501 15.30208204 70349
STARLINK-32359          
1 61957U 24209U   26039.08757767  .00038980  00000+0  13214-2 0  9992
2 61957  53.1564 279.9761 0001169 106.2962 253.8167 15.30198578 70385
STARLINK-32566          
1 61958U 24209V   26038.93373263  .00027615  00000+0  94064-3 0  9997
2 61958  53.1597 280.4420 0001106  47.4110 312.6984 15.30213655 70366
STARLINK-32499          
1 61959U 24210A   26039.25936711  .00038389  00000+0  13959-2 0  9992
2 61959  43.0003 345.6355 0001341 266.7012  93.3687 15.27613130 70424
