[{"OBJECT_NAME":"STARLINK-11422 [DTC]","OBJECT_ID":"2024-209F","EPOCH":"2026-02-07T15:07:45.739200","MEAN_MOTION":15.697719,"ECCENTRICITY":0.0001443,"INCLINATION":53.1568,"RA_OF_ASC_NODE":159.6726,"ARG_OF_PERICENTER":57.8118,"MEAN_ANOMALY":302.3039,"EPHEMERIS_TYPE":0,"CLASSIFICATION_TYPE":"U","NORAD_CAT_ID":61944,"ELEMENT_SET_NO":999,"REV_AT_EPOCH":7195,"BSTAR":0.001243,"MEAN_MOTION_DOT":0.00153207,"MEAN_MOTION_DDOT":0},{"OBJECT_NAME":"STARLINK-11421 [DTC]","OBJECT_ID":"2024-209G","EPOCH":"2026-02-07T15:00:41.904000","MEAN_MOTION":15.69774657,"ECCENTRICITY":0.0002079,"INCLINATION":53.1575,"RA_OF_ASC_NODE":159.639,"ARG_OF_PERICENTER":32.4823,"MEAN_ANOMALY":327.6322,"EPHEMERIS_TYPE":0,"CLASSIFICATION_TYPE":"U","NORAD_CAT_ID":61945,"ELEMENT_SET_NO":999,"REV_AT_EPOCH":7195,"BSTAR":0.00093132,"MEAN_MOTION_DOT":0.00114114,"MEAN_MOTION_DDOT":0},{"OBJECT_NAME":"STARLINK-11410 [DTC]","OBJECT_ID":"2024-209H","EPOCH":"2026-02-07T14:53:38.016960","MEAN_MOTION":15.69784625,"ECCENTRICITY":0.0001734,"INCLINATION":53.1565,"RA_OF_ASC_NODE":159.6046,"ARG_OF_PERICENTER":51.5642,"MEAN_ANOMALY":308.5532,"EPHEMERIS_TYPE":0,"CLASSIFICATION_TYPE":"U","NORAD_CAT_ID":61946,"ELEMENT_SET_NO":999,"REV_AT_EPOCH":7199,"BSTAR":0.0013378,"MEAN_MOTION_DOT":0.0016527,"MEAN_MOTION_DDOT":0},{"OBJECT_NAME":"STARLINK-11390 [DTC]","OBJECT_ID":"2024-209J","EPOCH":"2026-02-07T14:46:34.285440","MEAN_MOTION":15.69792774,"ECCENTRICITY":0.0002025,"INCLINATION":53.1565,"RA_OF_ASC_NODE":159.5743,"ARG_OF_PERICENTER":31.1272,"MEAN_ANOMALY":328.9866,"EPHEMERIS_TYPE":0,"CLASSIFICATION_TYPE":"U","NORAD_CAT_ID":61947,"ELEMENT_SET_NO":999,"REV_AT_EPOCH":7199,"BSTAR":0.0015057,"MEAN_MOTION_DOT":0.00186628,"MEAN_MOTION_DDOT":0},{"OBJECT_NAME":"STARLINK-11414 [DTC]","OBJECT_ID":"2024-209K","EPOCH":"2026-02-08T07:06:50.436576","MEAN_MOTION":15.69785904,"ECCENTRICITY":9.668e-5,"INCLINATION":53.157,"RA_OF_ASC_NODE":155.9919,"ARG_OF_PERICENTER":85.9799,"MEAN_ANOMALY":274.133,"EPHEMERIS_TYPE":0,"CLASSIFICATION_TYPE":"U","NORAD_CAT_ID":61948,"ELEMENT_SET_NO":999,"REV_AT_EPOCH":7210,"BSTAR":0.0019342526,"MEAN_MOTION_DOT":0.0024145,"MEAN_MOTION_DDOT":0},{"OBJECT_NAME":"STARLINK-11424 [DTC]","OBJECT_ID":"2024-209L","EPOCH":"2026-02-08T07:13:54.345216","MEAN_MOTION":15.69915152,"ECCENTRICITY":3.837e-5,"INCLINATION":53.1564,"RA_OF_ASC_NODE":156.0252,"ARG_OF_PERICENTER":319.1085,"MEAN_ANOMALY":40.9904,"EPHEMERIS_TYPE":0,"CLASSIFICATION_TYPE":"U","NORAD_CAT_ID":61949,"ELEMENT_SET_NO":999,"REV_AT_EPOCH":7206,"BSTAR":0.0031397955,"MEAN_MOTION_DOT":0.00402267,"MEAN_MOTION_DDOT":0},{"OBJECT_NAME":"STARLINK-11423 [DTC]","OBJECT_ID":"2024-209M","EPOCH":"2026-02-07T22:17:56.784480","MEAN_MOTION":15.69760662,"ECCENTRICITY":0.0004944,"INCLINATION":53.1576,"RA_OF_ASC_NODE":157.9759,"ARG_OF_PERICENTER":26.5848,"MEAN_ANOMALY":333.5423,"EPHEMERIS_TYPE":0,"CLASSIFICATION_TYPE":"U","NORAD_CAT_ID":61950,"ELEMENT_SET_NO":999,"REV_AT_EPOCH":7204,"BSTAR":0.0017671,"MEAN_MOTION_DOT":0.00219808,"MEAN_MOTION_DDOT":0},{"OBJECT_NAME":"STARLINK-11395 [DTC]","OBJECT_ID":"2024-209N","EPOCH":"2026-02-07T22:10:52.424832","MEAN_MOTION":15.69758659,"ECCENTRICITY":0.0003196,"INCLINATION":53.1565,"RA_OF_ASC_NODE":157.9365,"ARG_OF_PERICENTER":36.5535,"MEAN_ANOMALY":323.5701,"EPHEMERIS_TYPE":0,"CLASSIFICATION_TYPE":"U","NORAD_CAT_ID":61951,"ELEMENT_SET_NO":999,"REV_AT_EPOCH":7200,"BSTAR":0.0015997,"MEAN_MOTION_DOT":0.00198336,"MEAN_MOTION_DDOT":0},{"OBJECT_NAME":"STARLINK-32572","OBJECT_ID":"2024-209P","EPOCH":"2026-02-08T01:29:38.784480","MEAN_MOTION":15.30201553,"ECCENTRICITY":0.00014718,"INCLINATION":53.1589,"RA_OF_ASC_NODE":279.8216,"ARG_OF_PERICENTER":70.91,"MEAN_ANOMALY":289.206,"EPHEMERIS_TYPE":0,"CLASSIFICATION_TYPE":"U","NORAD_CAT_ID":61952,"ELEMENT_SET_NO":999,"REV_AT_EPOCH":7036,"BSTAR":0.0012840805,"MEAN_MOTION_DOT":0.00037868,"MEAN_MOTION_DDOT":0},{"OBJECT_NAME":"STARLINK-32585","OBJECT_ID":"2024-209Q","EPOCH":"2026-02-08T02:24:20.828448","MEAN_MOTION":15.30196756,"ECCENTRICITY":0.00011808,"INCLINATION":53.1574,"RA_OF_ASC_NODE":280.0561,"ARG_OF_PERICENTER":100.5987,"MEAN_ANOMALY":259.5147,"EPHEMERIS_TYPE":0,"CLASSIFICATION_TYPE":"U","NORAD_CAT_ID":61953,"ELEMENT_SET_NO":999,"REV_AT_EPOCH":7036,"BSTAR":0.00070357113,"MEAN_MOTION_DOT":0.00020534,"MEAN_MOTION_DDOT":0},{"OBJECT_NAME":"STARLINK-32574","OBJECT_ID":"2024-209R","EPOCH":"2026-02-08T01:05:28.750560","MEAN_MOTION":15.30175466,"ECCENTRICITY":0.00010581,"INCLINATION":53.158,"RA_OF_ASC_NODE":280.4244,"ARG_OF_PERICENTER":100.8022,"MEAN_ANOMALY":259.3098,"EPHEMERIS_TYPE":0,"CLASSIFICATION_TYPE":"U","NORAD_CAT_ID":61954,"ELEMENT_SET_NO":999,"REV_AT_EPOCH":7037,"BSTAR":0.0012217526,"MEAN_MOTION_DOT":0.00035973,"MEAN_MOTION_DDOT":0},{"OBJECT_NAME":"STARLINK-32583","OBJECT_ID":"2024-209S","EPOCH":"2026-02-07T23:07:07.195008","MEAN_MOTION":15.30203683,"ECCENTRICITY":0.00011752,"INCLINATION":53.1562,"RA_OF_ASC_NODE":280.6228,"ARG_OF_PERICENTER":72.997,"MEAN_ANOMALY":287.1159,"EPHEMERIS_TYPE":0,"CLASSIFICATION_TYPE":"U","NORAD_CAT_ID":61955,"ELEMENT_SET_NO":999,"REV_AT_EPOCH":7036,"BSTAR":0.00041950614,"MEAN_MOTION_DOT":0.00012087,"MEAN_MOTION_DDOT":0},{"OBJECT_NAME":"STARLINK-32273","OBJECT_ID":"2024-209T","EPOCH":"2026-02-07T22:29:07.983744","MEAN_MOTION":15.30208204,"ECCENTRICITY":0.0001402,"INCLINATION":53.1586,"RA_OF_ASC_NODE":280.4544,"ARG_OF_PERICENTER":66.5647,"MEAN_ANOMALY":293.5501,"EPHEMERIS_TYPE":0,"CLASSIFICATION_TYPE":"U","NORAD_CAT_ID":61956,"ELEMENT_SET_NO":999,"REV_AT_EPOCH":7034,"BSTAR":0.00082395,"MEAN_MOTION_DOT":0.00024129,"MEAN_MOTION_DDOT":0},{"OBJECT_NAME":"STARLINK-32359","OBJECT_ID":"2024-209U","EPOCH":"2026-02-08T02:06:06.710688","MEAN_MOTION":15.30198578,"ECCENTRICITY":0.00011697,"INCLINATION":53.1564,"RA_OF_ASC_NODE":279.9761,"ARG_OF_PERICENTER":106.2962,"MEAN_ANOMALY":253.8167,"EPHEMERIS_TYPE":0,"CLASSIFICATION_TYPE":"U","NORAD_CAT_ID":61957,"ELEMENT_SET_NO":999,"REV_AT_EPOCH":7038,"BSTAR":0.0013213694,"MEAN_MOTION_DOT":0.0003898,"MEAN_MOTION_DDOT":0},{"OBJECT_NAME":"STARLINK-32566","OBJECT_ID":"2024-209V","EPOCH":"2026-02-07T22:24:34.499232","MEAN_MOTION":15.30213655,"ECCENTRICITY":0.0001106,"INCLINATION":53.1597,"RA_OF_ASC_NODE":280.442,"ARG_OF_PERICENTER":47.411,"MEAN_ANOMALY":312.6984,"EPHEMERIS_TYPE":0,"CLASSIFICATION_TYPE":"U","NORAD_CAT_ID":61958,"ELEMENT_SET_NO":999,"REV_AT_EPOCH":7036,"BSTAR":0.00094064,"MEAN_MOTION_DOT":0.00027615,"MEAN_MOTION_DDOT":0},{"OBJECT_NAME":"STARLINK-32499","OBJECT_ID":"2024-210A","EPOCH":"2026-02-08T06:13:29.318304","MEAN_MOTION":15.2761313,"ECCENTRICITY":0.00013417,"INCLINATION":43.0003,"RA_OF_ASC_NODE":345.6355,"ARG_OF_PERICENTER":266.7012,"MEAN_ANOMALY":93.3687,"EPHEMERIS_TYPE":0,"CLASSIFICATION_TYPE":"U","NORAD_CAT_ID":61959,"ELEMENT_SET_NO":999,"REV_AT_EPOCH":7042,"BSTAR":0.0013958855,"MEAN_MOTION_DOT":0.00038389,"MEAN_MOTION_DDOT":0}]
